KUIPER-00035            
1 63748U 25088AA  25207.58335648 -.00041966  00000+0 -26609-2 0  9991
2 63748  51.8829  35.9730 0003162  86.1438  69.4313 15.08437036 13997
KUIPER-00037            
1 63749U 25088AB  25207.58335648 -.01030730  00000+0 -67278-1 0  9996
2 63749  51.8855  35.3546 0004209   5.3489  22.6783 15.10105728 14792
KUIPER-00038            
1 63750U 25088AC  25207.52986274  .00015672  00000+0  42561-3 0  9994
2 63750  51.8716  29.9860 0004722  67.2686 292.8800 15.37747826 13862
KUIPER-00039            
1 64500U 25134A   25207.33658750  .00026976  00000+0  79013-3 0  9995
2 64500  51.8675 172.5917 0007415 231.8260 128.2059 15.35003005  5835
KUIPER-00040            
1 64501U 25134B   25207.58335648 -.00747541  00000+0 -31171-1 0  9992
2 64501  51.8715 171.9400 0011424 247.5294 141.2640 15.25505051  5868
KUIPER-00041            
1 64502U 25134C   25207.58335648 -.00931652  00000+0 -46185-1 0  9992
2 64502  51.8735 172.1198 0008365 237.6766  21.7843 15.19883664  5850
KUIPER-00042            
1 64503U 25134D   25207.25001157 -.00208269  00000+0 -69037-2 0  9995
2 64503  51.8668 173.1054 0008701 233.4373 317.3348 15.31546294  5819
KUIPER-00043            
1 64504U 25134E   25207.33841396  .00030801  00000+0  90464-3 0  9994
2 64504  51.8687 172.6068 0007734 227.2677 132.7658 15.34844020  6212
